ORBCOMM FM24            
1 25478U 98053D   25363.47842418  .00001658  00000+0  58137-3 0  9994
2 25478  45.0084  62.7411 0002374 187.1995 172.8820 14.38701746425567
ORBCOMM FM25            
1 25479U 98053E   25363.45383994  .00001886  00000+0  65523-3 0  9992
2 25479  45.0074  61.1591 0004585 172.3313 187.7606 14.38670706425855
ORBCOMM FM26            
1 25480U 98053F   25363.45963625  .00001464  00000+0  52997-3 0  9992
2 25480  45.0072  59.0558 0006803 179.9812 180.1038 14.37635351425746
ORBCOMM FM27            
1 25481U 98053G   25363.50650154  .00001817  00000+0  63270-3 0  9997
2 25481  45.0060  61.0366 0002170 226.2210 133.8459 14.38706295425799
ORBCOMM FM28            
1 25482U 98053H   25362.27269535  .00001357  00000+0  48295-3 0  9999
2 25482  45.0065   4.1556 0005219 220.0050 140.0414 14.38823852426303
ORBCOMM FM30            
1 25980U 99065A   25363.07982485  .00001076  00000+0  40064-3 0  9995
2 25980  45.0306 246.8990 0006348 275.5109  84.5015 14.37798314362496
ORBCOMM FM31            
1 25981U 99065B   25362.92329813  .00000999  00000+0  37603-3 0  9997
2 25981  45.0217 241.0912 0004210 304.7741  55.2711 14.37724567362028
ORBCOMM FM32            
1 25982U 99065C   25363.44597383  .00001170  00000+0  44024-3 0  9992
2 25982  45.0151 256.4983 0006677 298.3266  61.6908 14.36785739362670
